{
    "links": {
        "self": "http://www.neowsapp.com/rest/v1/neo/3354954?api_key=iIulBulltgU6a56xZRHN4H3l9WmuAYTsLGpBGhQ2"
    },
    "id": "3354954",
    "neo_reference_id": "3354954",
    "name": "(2006 UY215)",
    "designation": "2006 UY215",
    "nasa_jpl_url": "http://ssd.jpl.nasa.gov/sbdb.cgi?sstr=3354954",
    "absolute_magnitude_h": 23.1,
    "estimated_diameter": {
        "kilometers": {
            "estimated_diameter_min": 0.063760979,
            "estimated_diameter_max": 0.1425738833
        },
        "meters": {
            "estimated_diameter_min": 63.7609789875,
            "estimated_diameter_max": 142.5738833281
        },
        "miles": {
            "estimated_diameter_min": 0.0396192233,
            "estimated_diameter_max": 0.0885912765
        },
        "feet": {
            "estimated_diameter_min": 209.1895703015,
            "estimated_diameter_max": 467.7620993781
        }
    },
    "is_potentially_hazardous_asteroid": false,
    "close_approach_data": [
        {
            "close_approach_date": "1980-10-23",
            "close_approach_date_full": "1980-Oct-23 19:09",
            "epoch_date_close_approach": 341176140000,
            "relative_velocity": {
                "kilometers_per_second": "18.1562002645",
                "kilometers_per_hour": "65362.3209520744",
                "miles_per_hour": "40613.604371582"
            },
            "miss_distance": {
                "astronomical": "0.1683592434",
                "lunar": "65.4917456826",
                "kilometers": "25186184.207451558",
                "miles": "15649969.1677971804"
            },
            "orbiting_body": "Earth"
        },
        {
            "close_approach_date": "2006-11-01",
            "close_approach_date_full": "2006-Nov-01 09:26",
            "epoch_date_close_approach": 1162373160000,
            "relative_velocity": {
                "kilometers_per_second": "14.0670850318",
                "kilometers_per_hour": "50641.5061146384",
                "miles_per_hour": "31466.6625077318"
            },
            "miss_distance": {
                "astronomical": "0.0277726836",
                "lunar": "10.8035739204",
                "kilometers": "4154734.310743932",
                "miles": "2581632.1888209816"
            },
            "orbiting_body": "Earth"
        },
        {
            "close_approach_date": "2066-11-02",
            "close_approach_date_full": "2066-Nov-02 01:08",
            "epoch_date_close_approach": 3055885680000,
            "relative_velocity": {
                "kilometers_per_second": "13.9501280317",
                "kilometers_per_hour": "50220.4609141859",
                "miles_per_hour": "31205.0413941507"
            },
            "miss_distance": {
                "astronomical": "0.0249236754",
                "lunar": "9.6953097306",
                "kilometers": "3728528.752411398",
                "miles": "2316800.3352893724"
            },
            "orbiting_body": "Earth"
        },
        {
            "close_approach_date": "2113-10-11",
            "close_approach_date_full": "2113-Oct-11 17:43",
            "epoch_date_close_approach": 4537186980000,
            "relative_velocity": {
                "kilometers_per_second": "26.5313928247",
                "kilometers_per_hour": "95513.014168789",
                "miles_per_hour": "59348.07260949"
            },
            "miss_distance": {
                "astronomical": "0.4553511369",
                "lunar": "177.1315922541",
                "kilometers": "68119560.182318403",
                "miles": "42327531.9435558414"
            },
            "orbiting_body": "Earth"
        }
    ],
    "orbital_data": {
        "orbit_id": "8",
        "orbit_determination_date": "2017-04-06 09:07:45",
        "first_observation_date": "2006-10-28",
        "last_observation_date": "2006-10-31",
        "data_arc_in_days": 3,
        "observations_used": 33,
        "orbit_uncertainty": "8",
        "minimum_orbit_intersection": ".0136329",
        "jupiter_tisserand_invariant": "4.668",
        "epoch_osculation": "2454038.5",
        "eccentricity": ".4593213399005303",
        "semi_major_axis": "1.382068315651689",
        "inclination": "9.355047397808626",
        "ascending_node_longitude": "215.8335313803053",
        "orbital_period": "593.4616954747391",
        "perihelion_distance": ".747254845072486",
        "perihelion_argument": "262.7365560242894",
        "aphelion_distance": "2.016881786230891",
        "perihelion_time": "2454093.370303435359",
        "mean_anomaly": "326.7151066575112",
        "mean_motion": ".6066103385358651",
        "equinox": "J2000",
        "orbit_class": {
            "orbit_class_type": "APO",
            "orbit_class_description": "Near-Earth asteroid orbits which cross the Earth’s orbit similar to that of 1862 Apollo",
            "orbit_class_range": "a (semi-major axis) > 1.0 AU; q (perihelion) < 1.017 AU"
        }
    },
    "is_sentry_object": false
}